NORAD_CAT_ID,OBJECT_NAME,OBJECT_TYPE,EPOCH,MEAN_MOTION,ECCENTRICITY,INCLINATION,RA_OF_ASC_NODE,ARG_OF_PERICENTER,MEAN_ANOMALY,BSTAR,MEAN_MOTION_DOT,MEAN_MOTION_DDOT,TLE_LINE0,TLE_LINE1,TLE_LINE2,SEMIMAJOR_AXIS,PERIOD,APOGEE,PERIGEE,DECAYED
53998.0,STARLINK-5128,PAYLOAD,2022-12-09 14:00:01,15.10403953,0.0001498,53.2172,138.5275,52.0116,319.7781,-0.078731,-0.01199668,0.0,0 STARLINK-5128,1 53998U 22125AL  22343.58334491 -.01199668  00000-0 -78731-1 0  9996,2 53998  53.2172 138.5275 0001498  52.0116 319.7781 15.10403953  1305,6913.104,95.339,536.005,533.934,0.0
53998.0,STARLINK-5128,PAYLOAD,2022-12-09 22:00:00,15.09480792,0.0001309,53.2169,137.0295,58.8695,325.8582,-0.049741,-0.0074777,0.0,0 STARLINK-5128,1 53998U 22125AL  22343.91667824 -.00747770  00000-0 -49741-1 0  9993,2 53998  53.2169 137.0295 0001309  58.8695 325.8582 15.09480792 10529,6915.922,95.397,538.693,536.882,0.0
53998.0,STARLINK-5128,PAYLOAD,2022-12-10 00:00:00,15.09232427,0.0001384,53.2169,136.6542,61.5965,56.2353,-0.03324,-0.00504144,0.0,0 STARLINK-5128,1 53998U 22125AL  22344.00001157 -.00504144  00000-0 -33240-1 0  9998,2 53998  53.2169 136.6542 0001384  61.5965  56.2353 15.09232427 10535,6916.681,95.413,539.503,537.589,0.0
53998.0,STARLINK-5128,PAYLOAD,2022-12-10 14:00:01,15.08837427,0.0001545,53.2175,134.0342,59.0419,349.3298,-7.0489e-05,-1.41e-05,0.0,0 STARLINK-5128,1 53998U 22125AL  22344.58334491 -.00001410  00000-0 -70489-4 0  9998,2 53998  53.2175 134.0342 0001545  59.0419 349.3298 15.08837427 10621,6917.888000000001,95.438,540.822,538.684,0.0
53998.0,STARLINK-5128,PAYLOAD,2022-12-11 00:00:00,15.08836642,0.0001399,53.2171,132.164,69.1803,83.6818,4.590100000000001e-05,4.43e-06,0.0,0 STARLINK-5128,1 53998U 22125AL  22345.00001157  .00000443  00000-0  45901-4 0  9990,2 53998  53.2171 132.1640 0001399  69.1803  83.6818 15.08836642  1302,6917.891,95.438,540.7230000000002,538.788,0.0
53998.0,STARLINK-5128,PAYLOAD,2022-12-11 14:00:01,15.08842234,0.0001396999999999,53.217,129.5496,75.02,8.1683,-0.0018753,-0.00030011,0.0,0 STARLINK-5128,1 53998U 22125AL  22345.58334491 -.00030011  00000-0 -18753-2 0  9992,2 53998  53.2170 129.5496 0001397  75.0200   8.1683 15.08842234  1301,6917.874,95.437,540.705,538.7719999999998,0.0
53998.0,STARLINK-5128,PAYLOAD,2022-12-11 22:00:01,15.08824566,0.0001396999999999,53.2163,128.0537,66.4838,28.3607,0.0018632,0.00029477,0.0,0 STARLINK-5128,1 53998U 22125AL  22345.91668981  .00029477  00000-0  18632-2 0  9991,2 53998  53.2163 128.0537 0001397  66.4838  28.3607 15.08824566 10829,6917.928000000001,95.439,540.759,538.826,0.0
53998.0,STARLINK-5128,PAYLOAD,2022-12-12 14:00:01,15.08836468,0.000145,53.2169,125.061,74.7727,43.1929,-0.0014285,-0.00022948,0.0,0 STARLINK-5128,1 53998U 22125AL  22346.58334491 -.00022948  00000-0 -14285-2 0  9999,2 53998  53.2169 125.0610 0001450  74.7727  43.1929 15.08836468 10920,6917.891,95.438,540.759,538.753,0.0
53998.0,STARLINK-5128,PAYLOAD,2022-12-12 22:00:00,15.08826446,0.000147,53.2161,123.5656,68.7239,60.8264,0.001386,0.00021831,0.0,0 STARLINK-5128,1 53998U 22125AL  22346.91667824  .00021831  00000-0  13860-2 0  9991,2 53998  53.2161 123.5656 0001470  68.7239  60.8264 15.08826446  1303,6917.922,95.438,540.804,538.77,0.0
53998.0,STARLINK-5128,PAYLOAD,2022-12-13 14:00:01,15.08886186,0.0001524,53.2168,120.5699,78.113,74.626,-0.0088168999999999,-0.00138105,0.0,0 STARLINK-5128,1 53998U 22125AL  22347.58334491 -.00138105  00000-0 -88169-2 0  9995,2 53998  53.2168 120.5699 0001524  78.1130  74.6260 15.08886186 11070,6917.739000000001,95.435,540.658,538.55,0.0
53998.0,STARLINK-5128,PAYLOAD,2022-12-13 16:00:00,15.08851551,0.000152,53.2169,120.1959,77.096,168.5531,-0.0064636,-0.00101738,0.0,0 STARLINK-5128,1 53998U 22125AL  22347.66667824 -.00101738  00000-0 -64636-2 0  9998,2 53998  53.2169 120.1959 0001520  77.0960 168.5531 15.08851551  1308,6917.845,95.437,540.762,538.659,0.0
53998.0,STARLINK-5128,PAYLOAD,2022-12-14 02:02:39,15.0883905,0.0001304,53.2173,118.3187,73.2834,286.8301,5.9095e-05,6.53e-06,0.0,0 STARLINK-5128,1 53998U 22125AL  22348.08518075  .00000653  00000-0  59095-4 0  9995,2 53998  53.2173 118.3187 0001304  73.2834 286.8301 15.08839050 11156,6917.8830000000025,95.438,540.65,538.846,0.0
53998.0,STARLINK-5128,PAYLOAD,2022-12-14 09:59:36,15.08830232,0.0001455,53.2174,116.8315,75.2016,284.9137,-2.082400000000001e-05,-6.19e-06,0.0,0 STARLINK-5128,1 53998U 22125AL  22348.41639041 -.00000619  00000-0 -20824-4 0  9991,2 53998  53.2174 116.8315 0001455  75.2016 284.9137 15.08830232 11131,6917.91,95.438,540.7819999999998,538.769,0.0
53998.0,STARLINK-5128,PAYLOAD,2022-12-14 14:45:45,15.08830416,0.0001465,53.2173,115.9393,75.1858,284.9296,-1.9373e-05,-5.96e-06,0.0,0 STARLINK-5128,1 53998U 22125AL  22348.61511126 -.00000596  00000-0 -19373-4 0  9997,2 53998  53.2173 115.9393 0001465  75.1858 284.9296 15.08830416 11231,6917.91,95.438,540.788,538.761,0.0
53998.0,STARLINK-5128,PAYLOAD,2022-12-14 16:21:08,15.0883293,0.0001408,53.2153,115.6412,72.1463,287.9683,4.4552e-06,-2.17e-06,0.0,0 STARLINK-5128,1 53998U 22125AL  22348.68134896 -.00000217  00000-0  44552-5 0  9996,2 53998  53.2153 115.6412 0001408  72.1463 287.9683 15.08832930 11173,6917.901999999999,95.438,540.741,538.793,0.0
53998.0,STARLINK-5128,PAYLOAD,2022-12-15 03:28:50,15.08839971,0.0001472,53.2174,113.5616,70.6601,289.455,6.7481e-05,7.86e-06,0.0,0 STARLINK-5128,1 53998U 22125AL  22349.14502429  .00000786  00000-0  67481-4 0  9994,2 53998  53.2174 113.5616 0001472  70.6601 289.4550 15.08839971 11315,6917.88,95.438,540.764,538.727,0.0
53998.0,STARLINK-5128,PAYLOAD,2022-12-15 14:36:32,15.08839025,0.0001486999999999,53.2176,111.4796,71.7454,288.37,6.331e-06,-1.87e-06,0.0,0 STARLINK-5128,1 53998U 22125AL  22349.60870637 -.00000187  00000-0  63310-5 0  9998,2 53998  53.2176 111.4796 0001487  71.7454 288.3700 15.08839025 11312,6917.8830000000025,95.438,540.7769999999998,538.72,0.0
53998.0,STARLINK-5128,PAYLOAD,2022-12-15 17:47:18,15.08842878,0.000161,53.2171,110.8838,76.7396,283.3776,1.5671e-05,-3.9e-07,0.0,0 STARLINK-5128,1 53998U 22125AL  22349.74118362 -.00000039  00000-0  15671-4 0  9995,2 53998  53.2171 110.8838 0001610  76.7396 283.3776 15.08842878 11335,6917.871999999999,95.437,540.85,538.623,0.0
53998.0,STARLINK-5128,PAYLOAD,2022-12-16 08:05:45,15.08847183,0.0001581,53.2176,108.2079,74.827,285.2897,0.00014524,2.025e-05,0.0,0 STARLINK-5128,1 53998U 22125AL  22350.33733377  .00002025  00000-0  14524-3 0  9992,2 53998  53.2176 108.2079 0001581  74.8270 285.2897 15.08847183 11491,6917.858,95.437,540.817,538.63,0.0
53998.0,STARLINK-5128,PAYLOAD,2022-12-16 14:27:18,15.08842707,0.0001501999999999,53.2178,107.0191,71.8964,288.2192,0.00011145,1.486e-05,0.0,0 STARLINK-5128,1 53998U 22125AL  22350.60229633  .00001486  00000-0  11145-3 0  9993,2 53998  53.2178 107.0191 0001502  71.8964 288.2192 15.08842707 11460,6917.871999999999,95.437,540.776,538.698,0.0
53998.0,STARLINK-5128,PAYLOAD,2022-12-16 17:38:05,15.08837164,0.0001406,53.218,106.4246,67.5082,292.6059,4.7558e-05,4.69e-06,0.0,0 STARLINK-5128,1 53998U 22125AL  22350.73478010  .00000469  00000-0  47558-4 0  9990,2 53998  53.2180 106.4246 0001406  67.5082 292.6059 15.08837164 11555,6917.889,95.438,540.727,538.781,0.0
53998.0,STARLINK-5128,PAYLOAD,2022-12-17 14:18:05,15.08837383,0.0001523,53.2181,102.5593,69.0415,291.074,-1.8495e-05,-5.82e-06,0.0,0 STARLINK-5128,1 53998U 22125AL  22351.59590228 -.00000582  00000-0 -18495-4 0  9997,2 53998  53.2181 102.5593 0001523  69.0415 291.0740 15.08837383 11615,6917.888000000001,95.438,540.807,538.7,0.0
53998.0,STARLINK-5128,PAYLOAD,2022-12-17 19:04:15,15.08841807,0.0001485,53.2181,101.6666,67.3536,292.7613,-1.2909e-06,-3.09e-06,0.0,0 STARLINK-5128,1 53998U 22125AL  22351.79462043 -.00000309  00000-0 -12909-5 0  9994,2 53998  53.2181 101.6666 0001485  67.3536 292.7613 15.08841807 11644,6917.875,95.437,540.7669999999998,538.7130000000002,0.0
53998.0,STARLINK-5128,PAYLOAD,2022-12-18 14:08:53,15.08826307,0.0001408,53.2181,98.0991,55.582,304.5305,-3.4946e-05,-8.44e-06,0.0,0 STARLINK-5128,1 53998U 22125AL  22352.58951152 -.00000844  00000-0 -34946-4 0  9994,2 53998  53.2181  98.0991 0001408  55.5820 304.5305 15.08826307 11765,6917.922,95.438,540.761,538.813,0.0
53998.0,STARLINK-5128,PAYLOAD,2022-12-18 18:55:03,15.08833611,0.0001460999999999,53.2179,97.2068,64.8439,295.2704,-9.3418e-05,-1.774e-05,0.0,0 STARLINK-5128,1 53998U 22125AL  22352.78822983 -.00001774  00000-0 -93418-4 0  9997,2 53998  53.2179  97.2068 0001461  64.8439 295.2704 15.08833611 11794,6917.9,95.438,540.776,538.754,0.0
53998.0,STARLINK-5128,PAYLOAD,2022-12-18 23:41:12,15.0883372,0.0001412,53.218,96.3149,60.3064,299.8069,1.346e-05,-7.4e-07,0.0,0 STARLINK-5128,1 53998U 22125AL  22352.98694707 -.00000074  00000-0  13460-4 0  9990,2 53998  53.2180  96.3149 0001412  60.3064 299.8069 15.08833720 11893,6917.9,95.438,540.741,538.788,0.0
53998.0,STARLINK-5128,PAYLOAD,2022-12-19 07:38:07,15.08841288,0.0001396999999999,53.2183,94.8275,57.6569,302.4558,5.173800000000001e-05,5.36e-06,0.0,0 STARLINK-5128,1 53998U 22125AL  22353.31814209  .00000536  00000-0  51738-4 0  9991,2 53998  53.2183  94.8275 0001397  57.6569 302.4558 15.08841288 11948,6917.876,95.437,540.7080000000002,538.775,0.0
53998.0,STARLINK-5128,PAYLOAD,2022-12-19 23:31:57,15.08865648,0.0002133,53.2183,91.8544,64.8266,295.2947,0.00024237,3.574e-05,0.0,0 STARLINK-5128,1 53998U 22125AL  22353.98052239  .00003574  00000-0  24237-3 0  9999,2 53998  53.2183  91.8544 0002133  64.8266 295.2947 15.08865648 12046,6917.802,95.436,541.143,538.191,0.0
53998.0,STARLINK-5128,PAYLOAD,2022-12-20 07:28:53,15.08847108,0.0001413,53.2208,90.368,62.2114,297.9021,0.00015517,2.183e-05,0.0,0 STARLINK-5128,1 53998U 22125AL  22354.31173189  .00002183  00000-0  15517-3 0  9991,2 53998  53.2208  90.3680 0001413  62.2114 297.9021 15.08847108 12091,6917.859,95.437,540.701,538.746,0.0
